#aV2020  8  8  0  0  0.00000000     288 DD+AD WGS84 FIT  NGA
## 2117 518400.00000000   300.00000000 59069 0.0000000000000
+   31     1  2  3  4  5  6  7  8  9 10 11 12 13 15 16 17 18
+         19 20 21 22 23 24 25 26 27 28 29 30 31 32  0  0  0
+          0  0  0  0  0  0  0  0  0  0  0  0  0  0  0  0  0
+          0  0  0  0  0  0  0  0  0  0  0  0  0  0  0  0  0
+          0  0  0  0  0  0  0  0  0  0  0  0  0  0  0  0  0
++         2  2  2  2  2  2  2  2  2  2  2  2  2  2  2  2  2
++         2  2  2  2  2  2  2  2  2  2  2  2  2  2  0  0  0
++         0  0  0  0  0  0  0  0  0  0  0  0  0  0  0  0  0
++         0  0  0  0  0  0  0  0  0  0  0  0  0  0  0  0  0
++         0  0  0  0  0  0  0  0  0  0  0  0  0  0  0  0  0
%c cc cc ccc ccc cccc cccc cccc cccc ccccc ccccc ccccc ccccc
%c cc cc ccc ccc cccc cccc cccc cccc ccccc ccccc ccccc ccccc
%f  0.0000000  0.000000000  0.00000000000  0.000000000000000
%f  0.0000000  0.000000000  0.00000000000  0.000000000000000
%i    0    0    0    0      0      0      0      0         0
%i    0    0    0    0      0      0      0      0         0
/*      NGA, ST. LOUIS,MO.                                  
/*   EPHEMERIS COMPUTED FROM 2 DAYS OF DATA                 
/*   EPOCHA v5 SMOOTHER                                     
/*   G1762 IERS2010 SATAF SATAPC                            
*  2020  8  8 20 15  0.00000000
P  1  -5914.876907  17349.439647 -19330.543333     32.542727                    
V  1 -22145.394879   9601.932777  15906.028378      0.026128                    
P  2  21736.998897 -15086.948976   2667.764164   -499.350142                    
V  2   3698.871293   1098.971028 -31523.019037     -0.055146                    
P  3   4995.904080  18544.508808 -18466.093295   -264.287459                    
V  3 -20152.413275 -11654.870491 -17123.725610     -0.111686                    
P  4   -129.261389  26348.076753   3202.638132   -122.228910                    
V  4  -3194.002546   3786.778778 -31418.698838     -0.044277                    
P  5  15185.490395  -7613.670506  20317.426201    -18.398305                    
V  5  21764.369573  14445.644657 -10583.663313     -0.008306                    
P  6  24144.955762  -4607.004246 -10062.297237   -313.295907                    
V  6 -10570.128599   7493.628641 -28613.160789     -0.043990                    
P  7  12657.536322  10603.648999  21209.645168   -345.826720                    
V  7 -23258.665119  11924.506981   7553.886233     -0.085174                    
P  8  -6601.734515  24264.097752   8142.390364    -43.806854                    
V  8  -2133.108074 -10484.762155  29804.242922     -0.013199                    
P  9   8704.869392  21126.798305  13475.327392   -267.214915                    
V  9  -3140.824048  17104.722337 -24708.229656     -0.061397                    
P 10 -23691.581166 -10947.315068  -5504.852494   -422.333352                    
V 10  -4608.153228  -5835.707245  30701.974413     -0.103534                    
P 11  -9874.848368  23723.339492  -7862.711796   -198.190887                    
V 11  -8452.525721   5377.816519  28275.251274      0.105997                    
P 12  -3030.883740 -18512.846050 -19095.847630     83.121940                    
V 12  19426.623498  13543.846120 -16269.815646     -0.049402                    
P 13  13082.222343 -18436.314421  13737.667753     34.042976                    
V 13  -1175.425622  17761.968489  24839.925726      0.034350                    
P 15   3948.639083 -25036.006549   6939.652599   -211.949012                    
V 15   4457.364579   9162.700433  29531.841551      0.025783                    
P 16 -13191.177593   7997.399767  21460.808429   -193.179323                    
V 16 -21485.103877 -17409.087865  -6217.520522     -0.049197                    
P 17  13826.359100   5462.210423 -21592.878027    308.144971                    
V 17  -3584.658769  28139.099689   4688.958575      0.056064                    
P 18 -12534.593901 -10226.182628  21058.834433    265.515588                    
V 18  23883.832131 -12071.405522   8312.205333      0.084295                    
P 19  15247.033650  -2891.345213 -21845.796886   -121.067307                    
V 19  -3912.721363  26695.682953  -6403.480277      0.050643                    
P 20 -20827.981040 -15307.035661   6547.499201    527.091160                    
V 20   8984.808457    661.178569  29532.888560     -0.001164                    
P 21 -24177.938597   7320.977181   8470.507587     33.385455                    
V 21   6988.575484  -7492.892371  29295.655011      0.044191                    
P 22  -2714.627166  16075.094599 -20786.295610   -765.775160                    
V 22 -24067.501650 -12148.240615  -6044.008919      0.031630                    
P 23 -20830.323489 -16046.916057   3737.023244     33.315842                    
V 23   5516.486136    186.701783  31295.742881      0.124104                    
P 24   7430.507451 -18927.483229 -17093.377293    -16.867042                    
V 24  19786.842982  -8840.483720  18983.054342     -0.005770                    
P 25 -13987.845179 -19321.259894 -12190.251978     32.980860                    
V 25  13627.175087   6589.723929 -26346.140725      0.047017                    
P 26 -22424.434109  -1550.579105  14290.870740    257.895464                    
V 26 -14310.473159 -11403.584500 -23411.516965      0.066462                    
P 27 -12217.676838  16269.648151  16741.920758   -366.324321                    
V 27   -488.189769 -21694.398714  20871.806710     -0.093556                    
P 28  22394.023939  12116.983288  -6695.372723    691.513455                    
V 28   5739.989530   7705.869654  30659.981398     -0.038928                    
P 29  -4131.586503 -23889.153229  10757.293295   -168.450448                    
V 29   3541.031757 -13362.239541 -28240.423359     -0.084030                    
P 30  21099.449919   3169.854170  16002.439558   -278.405825                    
V 30 -17408.232799  10500.206487  20720.402096     -0.074718                    
P 31 -24957.428724   5352.060672  -8190.792528    -60.916865                    
V 31   8246.043238  -6481.004848 -29072.252581     -0.024758                    
P 32 -14963.754297  -4011.963348 -21500.798786    329.736652                    
V 32   1678.958631 -27452.965942   3790.101548      0.056083                    
EOF
